{"type": "FeatureCollection", "features": [ {"type": "Feature", "properties": {"norad_id": 66617, "name": "STARLINK-35940", "group": "last-30-days", "lat": -9.768058044838673, "lon": -163.63675582171388, "alt_km": 375.9476598822366, "timestamp": "2025-12-09T07:41:31.973479+00:00", "meta": {"OBJECT_NAME": "STARLINK-35940", "OBJECT_ID": "2025-271A", "EPOCH": "2025-12-08T22:00:03.000096", "MEAN_MOTION": 15.66598651, "ECCENTRICITY": 0.00010562, "INCLINATION": 53.1594, "RA_OF_ASC_NODE": 205.7586, "ARG_OF_PERICENTER": 98.1288, "MEAN_ANOMALY": 132.3441, "EPHEMERIS_TYPE": 0, "CLASSIFICATION_TYPE": "U", "NORAD_CAT_ID": 66617, "ELEMENT_SET_NO": 999, "REV_AT_EPOCH": 362, "BSTAR": -0.021156314, "MEAN_MOTION_DOT": -0.01988714, "MEAN_MOTION_DDOT": 0}, "tle": {"line1": "1 66617U 25271A   25342.91670139 -.01988714  00000+0 -21156-1 0  9990", "line2": "2 66617  53.1594 205.7586 0001056  98.1288 132.3441 15.66598651  3627"}}, "geometry": {"type": "Point", "coordinates": [-163.63675582171388, -9.768058044838673]}}, {"type": "Feature", "properties": {"norad_id": 66618, "name": "STARLINK-35970", "group": "last-30-days", "lat": 31.740076594124737, "lon": -128.7015671840205, "alt_km": 369.4651733455703, "timestamp": "2025-12-09T07:41:31.973490+00:00", "meta": {"OBJECT_NAME": "STARLINK-35970", "OBJECT_ID": "2025-271B", "EPOCH": "2025-12-08T22:00:03.000096", "MEAN_MOTION": 15.66606704, "ECCENTRICITY": 9.188e-05, "INCLINATION": 53.1589, "RA_OF_ASC_NODE": 205.6462, "ARG_OF_PERICENTER": 96.1797, "MEAN_ANOMALY": 187.61, "EPHEMERIS_TYPE": 0, "CLASSIFICATION_TYPE": "U", "NORAD_CAT_ID": 66618, "ELEMENT_SET_NO": 999, "REV_AT_EPOCH": 362, "BSTAR": -0.021246297, "MEAN_MOTION_DOT": -0.01996626, "MEAN_MOTION_DDOT": 0}, "tle": {"line1": "1 66618U 25271B   25342.91670139 -.01996626  00000+0 -21246-1 0  9992", "line2": "2 66618  53.1589 205.6462 0000918  96.1797 187.6100 15.66606704  3627"}}, "geometry": {"type": "Point", "coordinates": [-128.7015671840205, 31.740076594124737]}}, {"type": "Feature", "properties": {"norad_id": 66619, "name": "STARLINK-35951", "group": "last-30-days", "lat": -3.661149539080834, "lon": -158.98749418377966, "alt_km": 375.2249080444817, "timestamp": "2025-12-09T07:41:31.973500+00:00", "meta": {"OBJECT_NAME": "STARLINK-35951", "OBJECT_ID": "2025-271C", "EPOCH": "2025-12-08T22:00:03.000096", "MEAN_MOTION": 15.66604377, "ECCENTRICITY": 0.00010788, "INCLINATION": 53.1592, "RA_OF_ASC_NODE": 205.7416, "ARG_OF_PERICENTER": 106.4332, "MEAN_ANOMALY": 131.7008, "EPHEMERIS_TYPE": 0, "CLASSIFICATION_TYPE": "U", "NORAD_CAT_ID": 66619, "ELEMENT_SET_NO": 999, "REV_AT_EPOCH": 362, "BSTAR": -0.02120952, "MEAN_MOTION_DOT": -0.01993538, "MEAN_MOTION_DDOT": 0}, "tle": {"line1": "1 66619U 25271C   25342.91670139 -.01993538  00000+0 -21210-1 0  9993", "line2": "2 66619  53.1592 205.7416 0001078 106.4332 131.7008 15.66604377  3621"}}, "geometry": {"type": "Point", "coordinates": [-158.98749418377966, -3.661149539080834]}}, {"type": "Feature", "properties": {"norad_id": 66620, "name": "STARLINK-35936", "group": "last-30-days", "lat": -8.24587770738154, "lon": -162.46259767822127, "alt_km": 375.80333533404337, "timestamp": "2025-12-09T07:41:31.973516+00:00", "meta": {"OBJECT_NAME": "STARLINK-35936", "OBJECT_ID": "2025-271D", "EPOCH": "2025-12-08T22:00:03.000096", "MEAN_MOTION": 15.66606745, "ECCENTRICITY": 0.00010476, "INCLINATION": 53.1594, "RA_OF_ASC_NODE": 205.7544, "ARG_OF_PERICENTER": 103.8378, "MEAN_ANOMALY": 128.5454, "EPHEMERIS_TYPE": 0, "CLASSIFICATION_TYPE": "U", "NORAD_CAT_ID": 66620, "ELEMENT_SET_NO": 999, "REV_AT_EPOCH": 362, "BSTAR": -0.021248268, "MEAN_MOTION_DOT": -0.01996886, "MEAN_MOTION_DDOT": 0}, "tle": {"line1": "1 66620U 25271D   25342.91670139 -.01996886  00000+0 -21248-1 0  9995", "line2": "2 66620  53.1594 205.7544 0001047 103.8378 128.5454 15.66606745  3624"}}, "geometry": {"type": "Point", "coordinates": [-162.46259767822127, -8.24587770738154]}}, {"type": "Feature", "properties": {"norad_id": 66621, "name": "STARLINK-35847", "group": "last-30-days", "lat": 34.215384935097525, "lon": -125.68874590418159, "alt_km": 369.0506366466507, "timestamp": "2025-12-09T07:41:31.973528+00:00", "meta": {"OBJECT_NAME": "STARLINK-35847", "OBJECT_ID": "2025-271E", "EPOCH": "2025-12-08T22:00:03.000096", "MEAN_MOTION": 15.66606994, "ECCENTRICITY": 9.172e-05, "INCLINATION": 53.1591, "RA_OF_ASC_NODE": 205.6384, "ARG_OF_PERICENTER": 98.5942, "MEAN_ANOMALY": 188.7319, "EPHEMERIS_TYPE": 0, "CLASSIFICATION_TYPE": "U", "NORAD_CAT_ID": 66621, "ELEMENT_SET_NO": 999, "REV_AT_EPOCH": 362, "BSTAR": -0.021232572, "MEAN_MOTION_DOT": -0.01995512, "MEAN_MOTION_DDOT": 0}, "tle": {"line1": "1 66621U 25271E   25342.91670139 -.01995512  00000+0 -21233-1 0  9995", "line2": "2 66621  53.1591 205.6384 0000917  98.5942 188.7319 15.66606994  3629"}}, "geometry": {"type": "Point", "coordinates": [-125.68874590418159, 34.215384935097525]}}, {"type": "Feature", "properties": {"norad_id": 66622, "name": "STARLINK-35950", "group": "last-30-days", "lat": -2.127802598640429, "lon": -157.8372992367809, "alt_km": 375.0149538565456, "timestamp": "2025-12-09T07:41:31.973541+00:00", "meta": {"OBJECT_NAME": "STARLINK-35950", "OBJECT_ID": "2025-271F", "EPOCH": "2025-12-08T22:00:03.000096", "MEAN_MOTION": 15.66605531, "ECCENTRICITY": 0.00010741, "INCLINATION": 53.1593, "RA_OF_ASC_NODE": 205.7383, "ARG_OF_PERICENTER": 106.5393, "MEAN_ANOMALY": 133.5128, "EPHEMERIS_TYPE": 0, "CLASSIFICATION_TYPE": "U", "NORAD_CAT_ID": 66622, "ELEMENT_SET_NO": 999, "REV_AT_EPOCH": 362, "BSTAR": -0.021241319, "MEAN_MOTION_DOT": -0.01996245, "MEAN_MOTION_DDOT": 0}, "tle": {"line1": "1 66622U 25271F   25342.91670139 -.01996245  00000+0 -21241-1 0  9999", "line2": "2 66622  53.1593 205.7383 0001074 106.5393 133.5128 15.66605531  3629"}}, "geometry": {"type": "Point", "coordinates": [-157.8372992367809, -2.127802598640429]}}, {"type": "Feature", "properties": {"norad_id": 66623, "name": "STARLINK-35920", "group": "last-30-days", "lat": 0.939049231694259, "lon": -155.54512326898634, "alt_km": 374.49474337416177, "timestamp": "2025-12-09T07:41:31.973551+00:00", "meta": {"OBJECT_NAME": "STARLINK-35920", "OBJECT_ID": "2025-271G", "EPOCH": "2025-12-08T22:00:03.000096", "MEAN_MOTION": 15.66605824, "ECCENTRICITY": 0.00010609, "INCLINATION": 53.159, "RA_OF_ASC_NODE": 205.7301, "ARG_OF_PERICENTER": 99.0726, "MEAN_ANOMALY": 144.8117, "EPHEMERIS_TYPE": 0, "CLASSIFICATION_TYPE": "U", "NORAD_CAT_ID": 66623, "ELEMENT_SET_NO": 999, "REV_AT_EPOCH": 362, "BSTAR": -0.021229872, "MEAN_MOTION_DOT": -0.01995311, "MEAN_MOTION_DDOT": 0}, "tle": {"line1": "1 66623U 25271G   25342.91670139 -.01995311  00000+0 -21230-1 0  9991", "line2": "2 66623  53.1590 205.7301 0001060  99.0726 144.8117 15.66605824  3626"}}, "geometry": {"type": "Point", "coordinates": [-155.54512326898634, 0.939049231694259]}}, {"type": "Feature", "properties": {"norad_id": 66624, "name": "STARLINK-35927", "group": "last-30-days", "lat": -0.5940032495730163, "lon": -156.69034211900708, "alt_km": 374.74160214716085, "timestamp": "2025-12-09T07:41:31.973561+00:00", "meta": {"OBJECT_NAME": "STARLINK-35927", "OBJECT_ID": "2025-271H", "EPOCH": "2025-12-08T22:00:03.000096", "MEAN_MOTION": 15.66607738, "ECCENTRICITY": 0.00010057, "INCLINATION": 53.159, "RA_OF_ASC_NODE": 205.7344, "ARG_OF_PERICENTER": 102.4246, "MEAN_ANOMALY": 139.5413, "EPHEMERIS_TYPE": 0, "CLASSIFICATION_TYPE": "U", "NORAD_CAT_ID": 66624, "ELEMENT_SET_NO": 999, "REV_AT_EPOCH": 362, "BSTAR": -0.021245757, "MEAN_MOTION_DOT": -0.01996719, "MEAN_MOTION_DDOT": 0}, "tle": {"line1": "1 66624U 25271H   25342.91670139 -.01996719  00000+0 -21246-1 0  9992", "line2": "2 66624  53.1590 205.7344 0001005 102.4246 139.5413 15.66607738  3625"}}, "geometry": {"type": "Point", "coordinates": [-156.69034211900708, -0.5940032495730163]}}, {"type": "Feature", "properties": {"norad_id": 66625, "name": "STARLINK-35929", "group": "last-30-days", "lat": 2.482260685435245, "lon": -154.39097692191368, "alt_km": 374.8056911826543, "timestamp": "2025-12-09T07:41:31.973571+00:00", "meta": {"OBJECT_NAME": "STARLINK-35929", "OBJECT_ID": "2025-271J", "EPOCH": "2025-12-08T22:00:03.000096", "MEAN_MOTION": 15.66679128, "ECCENTRICITY": 0.00012947, "INCLINATION": 53.1591, "RA_OF_ASC_NODE": 205.7258, "ARG_OF_PERICENTER": 128.2448, "MEAN_ANOMALY": 117.5661, "EPHEMERIS_TYPE": 0, "CLASSIFICATION_TYPE": "U", "NORAD_CAT_ID": 66625, "ELEMENT_SET_NO": 999, "REV_AT_EPOCH": 362, "BSTAR": -0.02289942, "MEAN_MOTION_DOT": -0.02137574, "MEAN_MOTION_DDOT": 0}, "tle": {"line1": "1 66625U 25271J   25342.91670139 -.02137574  00000+0 -22899-1 0  9995", "line2": "2 66625  53.1591 205.7258 0001294 128.2448 117.5661 15.66679128  3624"}}, "geometry": {"type": "Point", "coordinates": [-154.39097692191368, 2.482260685435245]}}, {"type": "Feature", "properties": {"norad_id": 66626, "name": "STARLINK-35902", "group": "last-30-days", "lat": 4.005674430681492, "lon": -153.24831883237937, "alt_km": 374.1061382329581, "timestamp": "2025-12-09T07:41:31.973581+00:00", "meta": {"OBJECT_NAME": "STARLINK-35902", "OBJECT_ID": "2025-271K", "EPOCH": "2025-12-08T22:00:03.000096", "MEAN_MOTION": 15.66605305, "ECCENTRICITY": 0.00010732, "INCLINATION": 53.1593, "RA_OF_ASC_NODE": 205.7215, "ARG_OF_PERICENTER": 106.7664, "MEAN_ANOMALY": 140.9518, "EPHEMERIS_TYPE": 0, "CLASSIFICATION_TYPE": "U", "NORAD_CAT_ID": 66626, "ELEMENT_SET_NO": 999, "REV_AT_EPOCH": 362, "BSTAR": -0.021213256, "MEAN_MOTION_DOT": -0.01993909, "MEAN_MOTION_DDOT": 0}, "tle": {"line1": "1 66626U 25271K   25342.91670139 -.01993909  00000+0 -21213-1 0  9996", "line2": "2 66626  53.1593 205.7215 0001073 106.7664 140.9518 15.66605305  3623"}}, "geometry": {"type": "Point", "coordinates": [-153.24831883237937, 4.005674430681492]}}]}